HORYU-4                 
1 41340U 16012D   26116.08175857  .00156027  00000+0  10702-2 0  9991
2 41340  30.9890  94.0515 0006291 242.7462 117.2553 15.73116090562552
RAVAN                   
1 41849U 16067B   26116.66553962  .00050508  00000+0  89518-3 0  9995
2 41849  97.9960   0.4729 0006170 163.5720 196.5731 15.50088237519701
CELTEE 1                
1 41850U 16067C   26116.57593634  .00006625  00000+0  31871-3 0  9997
2 41850  98.0749 339.6246 0002357  78.3272 281.8225 15.19162409518040
OPTICUBE 04             
1 41851U 16067D   26116.57460549  .00002672  00000+0  17113-3 0  9997
2 41851  98.0764 326.1575 0014298 294.5997  65.3741 15.09439772517380
AEROCUBE 8D             
1 41852U 16067E   26116.87730837  .00007963  00000+0  33527-3 0  9996
2 41852  98.0762 343.1558 0002496 337.8663  22.2464 15.23666987518254
AEROCUBE 8C             
1 41853U 16067F   26116.58207247  .00009307  00000+0  38852-3 0  9999
2 41853  98.0631 340.1335 0004136 228.3646 131.7235 15.23897303518203
CORVUS BC2              
1 42846U 17042X   26116.43992267  .00003764  00000+0  26222-3 0  9992
2 42846  97.4022 279.8296 0011413 291.7611  68.2402 15.05963381479272
CORVUS BC1              
1 42847U 17042Y   26116.70613447  .00003236  00000+0  22508-3 0  9990
2 42847  97.4054 280.8653 0010217 263.3757  96.6308 15.06135008479340
MAKERSAT 0              
1 43016U 17073D   26116.61186117  .00027688  00000+0  78499-3 0  9999
2 43016  97.4703 358.7979 0114083  96.2491 265.1759 15.29843252458577
SIRION PATHFINDER-2     
1 43759U 18099B   26116.64018301  .00006016  00000+0  33389-3 0  9995
2 43759  97.4302 166.9291 0010460 115.4268 244.8048 15.14062709404820
CORVUS BC4              
1 43767U 18099K   26116.64383346  .00005064  00000+0  29782-3 0  9992
2 43767  97.4123 161.1366 0008753 167.6917 192.4530 15.12067786404611
M2 PATHFINDER           
1 45727U 20037E   26116.77050110  .00002137  00000+0  15729-3 0  9993
2 45727  97.8167 307.4281 0010707 334.6868  25.3831 15.04445875317762
NETSAT-4                
1 46504U 20068U   26116.56778765  .00020900  00000+0  48934-3 0  9993
2 46504  97.8630 120.7313 0007242 132.4712 227.7147 15.42126098307813
NETSAT-3                
1 46505U 20068V   26116.72808043  .00021802  00000+0  53172-3 0  9997
2 46505  97.8674 119.1889 0006627 144.9718 215.1964 15.40888645307754
NETSAT-1                
1 46506U 20068W   26116.66808970  .00015654  00000+0  48743-3 0  9996
2 46506  97.8754 114.0438 0005319 165.3114 194.8283 15.33369088307408
NETSAT-2                
1 46507U 20068X   26116.73575903  .00028015  00000+0  61926-3 0  9995
2 46507  97.8642 120.6388 0005027 148.8394 211.3152 15.43799621307797
GREENCUBE (IO-117)      
1 53109U 22080E   26116.51301245 -.00000003  00000+0  00000+0 0  9999
2 53109  70.1461 316.2254 0008782 301.5806  58.3996  6.42583380 88746
