[{"OBJECT_NAME":"HORYU-4","OBJECT_ID":"2016-012D","EPOCH":"2026-04-26T01:57:43.940448","MEAN_MOTION":15.7311609,"ECCENTRICITY":0.00062918,"INCLINATION":30.989,"RA_OF_ASC_NODE":94.0515,"ARG_OF_PERICENTER":242.7462,"MEAN_ANOMALY":117.2553,"EPHEMERIS_TYPE":0,"CLASSIFICATION_TYPE":"U","NORAD_CAT_ID":41340,"ELEMENT_SET_NO":999,"REV_AT_EPOCH":56255,"BSTAR":0.0010701776,"MEAN_MOTION_DOT":0.00156027,"MEAN_MOTION_DDOT":0},{"OBJECT_NAME":"RAVAN","OBJECT_ID":"2016-067B","EPOCH":"2026-04-26T15:58:22.623168","MEAN_MOTION":15.50088237,"ECCENTRICITY":0.000617,"INCLINATION":97.996,"RA_OF_ASC_NODE":0.4729,"ARG_OF_PERICENTER":163.572,"MEAN_ANOMALY":196.5731,"EPHEMERIS_TYPE":0,"CLASSIFICATION_TYPE":"U","NORAD_CAT_ID":41849,"ELEMENT_SET_NO":999,"REV_AT_EPOCH":51970,"BSTAR":0.00089518,"MEAN_MOTION_DOT":0.00050508,"MEAN_MOTION_DDOT":0},{"OBJECT_NAME":"CELTEE 1","OBJECT_ID":"2016-067C","EPOCH":"2026-04-26T13:49:20.899776","MEAN_MOTION":15.19162409,"ECCENTRICITY":0.0002357,"INCLINATION":98.0749,"RA_OF_ASC_NODE":339.6246,"ARG_OF_PERICENTER":78.3272,"MEAN_ANOMALY":281.8225,"EPHEMERIS_TYPE":0,"CLASSIFICATION_TYPE":"U","NORAD_CAT_ID":41850,"ELEMENT_SET_NO":999,"REV_AT_EPOCH":51804,"BSTAR":0.00031871,"MEAN_MOTION_DOT":6.625e-5,"MEAN_MOTION_DDOT":0},{"OBJECT_NAME":"OPTICUBE 04","OBJECT_ID":"2016-067D","EPOCH":"2026-04-26T13:47:25.914336","MEAN_MOTION":15.09439772,"ECCENTRICITY":0.0014298,"INCLINATION":98.0764,"RA_OF_ASC_NODE":326.1575,"ARG_OF_PERICENTER":294.5997,"MEAN_ANOMALY":65.3741,"EPHEMERIS_TYPE":0,"CLASSIFICATION_TYPE":"U","NORAD_CAT_ID":41851,"ELEMENT_SET_NO":999,"REV_AT_EPOCH":51738,"BSTAR":0.00017113,"MEAN_MOTION_DOT":2.672e-5,"MEAN_MOTION_DDOT":0},{"OBJECT_NAME":"AEROCUBE 8D","OBJECT_ID":"2016-067E","EPOCH":"2026-04-26T21:03:19.443168","MEAN_MOTION":15.23666987,"ECCENTRICITY":0.0002496,"INCLINATION":98.0762,"RA_OF_ASC_NODE":343.1558,"ARG_OF_PERICENTER":337.8663,"MEAN_ANOMALY":22.2464,"EPHEMERIS_TYPE":0,"CLASSIFICATION_TYPE":"U","NORAD_CAT_ID":41852,"ELEMENT_SET_NO":999,"REV_AT_EPOCH":51825,"BSTAR":0.00033527,"MEAN_MOTION_DOT":7.963e-5,"MEAN_MOTION_DDOT":0},{"OBJECT_NAME":"AEROCUBE 8C","OBJECT_ID":"2016-067F","EPOCH":"2026-04-26T13:58:11.061408","MEAN_MOTION":15.23897303,"ECCENTRICITY":0.0004136,"INCLINATION":98.0631,"RA_OF_ASC_NODE":340.1335,"ARG_OF_PERICENTER":228.3646,"MEAN_ANOMALY":131.7235,"EPHEMERIS_TYPE":0,"CLASSIFICATION_TYPE":"U","NORAD_CAT_ID":41853,"ELEMENT_SET_NO":999,"REV_AT_EPOCH":51820,"BSTAR":0.00038852,"MEAN_MOTION_DOT":9.307e-5,"MEAN_MOTION_DDOT":0},{"OBJECT_NAME":"CORVUS BC2","OBJECT_ID":"2017-042X","EPOCH":"2026-04-26T10:33:29.318688","MEAN_MOTION":15.05963381,"ECCENTRICITY":0.00114135,"INCLINATION":97.4022,"RA_OF_ASC_NODE":279.8296,"ARG_OF_PERICENTER":291.7611,"MEAN_ANOMALY":68.2402,"EPHEMERIS_TYPE":0,"CLASSIFICATION_TYPE":"U","NORAD_CAT_ID":42846,"ELEMENT_SET_NO":999,"REV_AT_EPOCH":47927,"BSTAR":0.00026222048,"MEAN_MOTION_DOT":3.764e-5,"MEAN_MOTION_DDOT":0},{"OBJECT_NAME":"CORVUS BC1","OBJECT_ID":"2017-042Y","EPOCH":"2026-04-26T16:56:50.018208","MEAN_MOTION":15.06135008,"ECCENTRICITY":0.0010217,"INCLINATION":97.4054,"RA_OF_ASC_NODE":280.8653,"ARG_OF_PERICENTER":263.3757,"MEAN_ANOMALY":96.6308,"EPHEMERIS_TYPE":0,"CLASSIFICATION_TYPE":"U","NORAD_CAT_ID":42847,"ELEMENT_SET_NO":999,"REV_AT_EPOCH":47934,"BSTAR":0.00022508,"MEAN_MOTION_DOT":3.236e-5,"MEAN_MOTION_DDOT":0},{"OBJECT_NAME":"MAKERSAT 0","OBJECT_ID":"2017-073D","EPOCH":"2026-04-26T14:41:04.805088","MEAN_MOTION":15.29843252,"ECCENTRICITY":0.0114083,"INCLINATION":97.4703,"RA_OF_ASC_NODE":358.7979,"ARG_OF_PERICENTER":96.2491,"MEAN_ANOMALY":265.1759,"EPHEMERIS_TYPE":0,"CLASSIFICATION_TYPE":"U","NORAD_CAT_ID":43016,"ELEMENT_SET_NO":999,"REV_AT_EPOCH":45857,"BSTAR":0.00078499,"MEAN_MOTION_DOT":0.00027688,"MEAN_MOTION_DDOT":0},{"OBJECT_NAME":"SIRION PATHFINDER-2","OBJECT_ID":"2018-099B","EPOCH":"2026-04-26T15:21:51.812064","MEAN_MOTION":15.14062709,"ECCENTRICITY":0.001046,"INCLINATION":97.4302,"RA_OF_ASC_NODE":166.9291,"ARG_OF_PERICENTER":115.4268,"MEAN_ANOMALY":244.8048,"EPHEMERIS_TYPE":0,"CLASSIFICATION_TYPE":"U","NORAD_CAT_ID":43759,"ELEMENT_SET_NO":999,"REV_AT_EPOCH":40482,"BSTAR":0.00033389,"MEAN_MOTION_DOT":6.016e-5,"MEAN_MOTION_DDOT":0},{"OBJECT_NAME":"CORVUS BC4","OBJECT_ID":"2018-099K","EPOCH":"2026-04-26T15:27:07.210944","MEAN_MOTION":15.12067786,"ECCENTRICITY":0.0008753,"INCLINATION":97.4123,"RA_OF_ASC_NODE":161.1366,"ARG_OF_PERICENTER":167.6917,"MEAN_ANOMALY":192.453,"EPHEMERIS_TYPE":0,"CLASSIFICATION_TYPE":"U","NORAD_CAT_ID":43767,"ELEMENT_SET_NO":999,"REV_AT_EPOCH":40461,"BSTAR":0.00029782,"MEAN_MOTION_DOT":5.064e-5,"MEAN_MOTION_DDOT":0},{"OBJECT_NAME":"M2 PATHFINDER","OBJECT_ID":"2020-037E","EPOCH":"2026-04-26T18:29:31.295040","MEAN_MOTION":15.04445875,"ECCENTRICITY":0.0010707,"INCLINATION":97.8167,"RA_OF_ASC_NODE":307.4281,"ARG_OF_PERICENTER":334.6868,"MEAN_ANOMALY":25.3831,"EPHEMERIS_TYPE":0,"CLASSIFICATION_TYPE":"U","NORAD_CAT_ID":45727,"ELEMENT_SET_NO":999,"REV_AT_EPOCH":31776,"BSTAR":0.00015729,"MEAN_MOTION_DOT":2.137e-5,"MEAN_MOTION_DDOT":0},{"OBJECT_NAME":"NETSAT-4","OBJECT_ID":"2020-068U","EPOCH":"2026-04-26T13:37:36.852960","MEAN_MOTION":15.42126098,"ECCENTRICITY":0.0007242,"INCLINATION":97.863,"RA_OF_ASC_NODE":120.7313,"ARG_OF_PERICENTER":132.4712,"MEAN_ANOMALY":227.7147,"EPHEMERIS_TYPE":0,"CLASSIFICATION_TYPE":"U","NORAD_CAT_ID":46504,"ELEMENT_SET_NO":999,"REV_AT_EPOCH":30781,"BSTAR":0.00048934,"MEAN_MOTION_DOT":0.000209,"MEAN_MOTION_DDOT":0},{"OBJECT_NAME":"NETSAT-3","OBJECT_ID":"2020-068V","EPOCH":"2026-04-26T17:28:26.149152","MEAN_MOTION":15.40888645,"ECCENTRICITY":0.0006627,"INCLINATION":97.8674,"RA_OF_ASC_NODE":119.1889,"ARG_OF_PERICENTER":144.9718,"MEAN_ANOMALY":215.1964,"EPHEMERIS_TYPE":0,"CLASSIFICATION_TYPE":"U","NORAD_CAT_ID":46505,"ELEMENT_SET_NO":999,"REV_AT_EPOCH":30775,"BSTAR":0.00053172,"MEAN_MOTION_DOT":0.00021802,"MEAN_MOTION_DDOT":0},{"OBJECT_NAME":"NETSAT-1","OBJECT_ID":"2020-068W","EPOCH":"2026-04-26T16:02:02.950080","MEAN_MOTION":15.33369088,"ECCENTRICITY":0.0005319,"INCLINATION":97.8754,"RA_OF_ASC_NODE":114.0438,"ARG_OF_PERICENTER":165.3114,"MEAN_ANOMALY":194.8283,"EPHEMERIS_TYPE":0,"CLASSIFICATION_TYPE":"U","NORAD_CAT_ID":46506,"ELEMENT_SET_NO":999,"REV_AT_EPOCH":30740,"BSTAR":0.00048743,"MEAN_MOTION_DOT":0.00015654,"MEAN_MOTION_DDOT":0},{"OBJECT_NAME":"NETSAT-2","OBJECT_ID":"2020-068X","EPOCH":"2026-04-26T17:39:29.580192","MEAN_MOTION":15.43799621,"ECCENTRICITY":0.0005027,"INCLINATION":97.8642,"RA_OF_ASC_NODE":120.6388,"ARG_OF_PERICENTER":148.8394,"MEAN_ANOMALY":211.3152,"EPHEMERIS_TYPE":0,"CLASSIFICATION_TYPE":"U","NORAD_CAT_ID":46507,"ELEMENT_SET_NO":999,"REV_AT_EPOCH":30779,"BSTAR":0.00061926,"MEAN_MOTION_DOT":0.00028015,"MEAN_MOTION_DDOT":0},{"OBJECT_NAME":"GREENCUBE (IO-117)","OBJECT_ID":"2022-080E","EPOCH":"2026-04-26T12:18:44.275680","MEAN_MOTION":6.4258338,"ECCENTRICITY":0.00087821,"INCLINATION":70.1461,"RA_OF_ASC_NODE":316.2254,"ARG_OF_PERICENTER":301.5806,"MEAN_ANOMALY":58.3996,"EPHEMERIS_TYPE":0,"CLASSIFICATION_TYPE":"U","NORAD_CAT_ID":53109,"ELEMENT_SET_NO":999,"REV_AT_EPOCH":8874,"BSTAR":0,"MEAN_MOTION_DOT":-3.0e-8,"MEAN_MOTION_DDOT":0}]
